[
    {
        "Altitude(m)": 624790.8337860575,
        "Argument of Periapsis(deg)": 0.0,
        "Eccentricity": 0.0,
        "Inclination(deg)": 60.0,
        "Latitude(deg)": -59.14723298943888,
        "Longitude(deg)": -113.96547022454794,
        "Mean Anomaly(deg)": 278.1818,
        "RAAN(deg)": 60.0,
        "Satellite Name": "Test1 281",
        "Satellite Number": 281,
        "Semi-Major Axis(m)": 6980739.136638005,
        "Time(s)": 0
    },
    {
        "Altitude(m)": 624737.4892533043,
        "Argument of Periapsis(deg)": 0.00010418945913296404,
        "Eccentricity": 0.0,
        "Inclination(deg)": 60.0,
        "Latitude(deg)": -58.99468900642989,
        "Longitude(deg)": -112.84596391168976,
        "Mean Anomaly(deg)": 278.8019061454619,
        "RAAN(deg)": 59.99957995086026,
        "Satellite Name": "Test1 281",
        "Satellite Number": 281,
        "Semi-Major Axis(m)": 6980739.136638005,
        "Time(s)": 10
    }
]